{
"type": "FeatureCollection",
"name": "region_table",
"crs": { "type": "name", "properties": { "name": "urn:ogc:def:crs:OGC:1.3:CRS84" } },
"features": [
{ "type": "Feature", "properties": { "RID": 1, "Code": "aus", "Name": "Australia", "Lon": 134.4909973, "Lat": -25.7332993 }, "geometry": { "type": "Point", "coordinates": [ 134.4909973, -25.7332993 ] } },
{ "type": "Feature", "properties": { "RID": 2, "Code": "nzl", "Name": "New Zealand", "Lon": 171.6040039, "Lat": -41.837101 }, "geometry": { "type": "Point", "coordinates": [ 171.6040039, -41.837101 ] } },
{ "type": "Feature", "properties": { "RID": 3, "Code": "xoc", "Name": "Rest of Oceania", "Lon": 143.0690002, "Lat": -7.7979898 }, "geometry": { "type": "Point", "coordinates": [ 143.0690002, -7.7979898 ] } },
{ "type": "Feature", "properties": { "RID": 4, "Code": "chn", "Name": "China", "Lon": 103.8349991, "Lat": 36.5633011 }, "geometry": { "type": "Point", "coordinates": [ 103.8349991, 36.5633011 ] } },
{ "type": "Feature", "properties": { "RID": 5, "Code": "hkg", "Name": "Hong Kong", "Lon": 114.1119995, "Lat": 22.3766003 }, "geometry": { "type": "Point", "coordinates": [ 114.1119995, 22.3766003 ] } },
{ "type": "Feature", "properties": { "RID": 6, "Code": "jpn", "Name": "Japan", "Lon": 137.973999, "Lat": 37.5397987 }, "geometry": { "type": "Point", "coordinates": [ 137.973999, 37.5397987 ] } },
{ "type": "Feature", "properties": { "RID": 7, "Code": "kor", "Name": "Korea Republic of", "Lon": 127.8290024, "Lat": 36.3676987 }, "geometry": { "type": "Point", "coordinates": [ 127.8290024, 36.3676987 ] } },
{ "type": "Feature", "properties": { "RID": 8, "Code": "mng", "Name": "Mongolia", "Lon": 103.0830002, "Lat": 46.8352013 }, "geometry": { "type": "Point", "coordinates": [ 103.0830002, 46.8352013 ] } },
{ "type": "Feature", "properties": { "RID": 9, "Code": "twn", "Name": "Taiwan", "Lon": 120.9459991, "Lat": 23.7537003 }, "geometry": { "type": "Point", "coordinates": [ 120.9459991, 23.7537003 ] } },
{ "type": "Feature", "properties": { "RID": 10, "Code": "xea", "Name": "Rest of East Asia", "Lon": 127.1800003, "Lat": 40.1419983 }, "geometry": { "type": "Point", "coordinates": [ 127.1800003, 40.1419983 ] } },
{ "type": "Feature", "properties": { "RID": 11, "Code": "brn", "Name": "Brunei Darussalam", "Lon": 114.7610016, "Lat": 4.5214801 }, "geometry": { "type": "Point", "coordinates": [ 114.7610016, 4.5214801 ] } },
{ "type": "Feature", "properties": { "RID": 12, "Code": "khm", "Name": "Cambodia", "Lon": 104.9209976, "Lat": 12.7139997 }, "geometry": { "type": "Point", "coordinates": [ 104.9209976, 12.7139997 ] } },
{ "type": "Feature", "properties": { "RID": 13, "Code": "idn", "Name": "Indonesia", "Lon": 117.3119965, "Lat": -2.2298701 }, "geometry": { "type": "Point", "coordinates": [ 117.3119965, -2.2298701 ] } },
{ "type": "Feature", "properties": { "RID": 14, "Code": "lao", "Name": "Lao Peoples Democratic Republic", "Lon": 103.7630005, "Lat": 18.5025005 }, "geometry": { "type": "Point", "coordinates": [ 103.7630005, 18.5025005 ] } },
{ "type": "Feature", "properties": { "RID": 15, "Code": "mys", "Name": "Malaysia", "Lon": 109.711998, "Lat": 3.7938299 }, "geometry": { "type": "Point", "coordinates": [ 109.711998, 3.7938299 ] } },
{ "type": "Feature", "properties": { "RID": 16, "Code": "phl", "Name": "Philippines", "Lon": 122.8740005, "Lat": 11.7474003 }, "geometry": { "type": "Point", "coordinates": [ 122.8740005, 11.7474003 ] } },
{ "type": "Feature", "properties": { "RID": 17, "Code": "sgp", "Name": "Singapore", "Lon": 103.8079987, "Lat": 1.35118 }, "geometry": { "type": "Point", "coordinates": [ 103.8079987, 1.35118 ] } },
{ "type": "Feature", "properties": { "RID": 18, "Code": "tha", "Name": "Thailand", "Lon": 101.0149994, "Lat": 15.1198997 }, "geometry": { "type": "Point", "coordinates": [ 101.0149994, 15.1198997 ] } },
{ "type": "Feature", "properties": { "RID": 19, "Code": "vnm", "Name": "Viet Nam", "Lon": 106.3040009, "Lat": 16.6515999 }, "geometry": { "type": "Point", "coordinates": [ 106.3040009, 16.6515999 ] } },
{ "type": "Feature", "properties": { "RID": 20, "Code": "xse", "Name": "Rest of Southeast Asia", "Lon": 97.1044998, "Lat": 20.5323009 }, "geometry": { "type": "Point", "coordinates": [ 97.1044998, 20.5323009 ] } },
{ "type": "Feature", "properties": { "RID": 21, "Code": "bgd", "Name": "Bangladesh", "Lon": 90.2708969, "Lat": 23.8330002 }, "geometry": { "type": "Point", "coordinates": [ 90.2708969, 23.8330002 ] } },
{ "type": "Feature", "properties": { "RID": 22, "Code": "ind", "Name": "India", "Lon": 79.6187973, "Lat": 22.8813 }, "geometry": { "type": "Point", "coordinates": [ 79.6187973, 22.8813 ] } },
{ "type": "Feature", "properties": { "RID": 23, "Code": "npl", "Name": "Nepal", "Lon": 83.9384995, "Lat": 28.2530003 }, "geometry": { "type": "Point", "coordinates": [ 83.9384995, 28.2530003 ] } },
{ "type": "Feature", "properties": { "RID": 24, "Code": "pak", "Name": "Pakistan", "Lon": 69.3858032, "Lat": 29.9668007 }, "geometry": { "type": "Point", "coordinates": [ 69.3858032, 29.9668007 ] } },
{ "type": "Feature", "properties": { "RID": 25, "Code": "lka", "Name": "Sri Lanka", "Lon": 80.7042999, "Lat": 7.61236 }, "geometry": { "type": "Point", "coordinates": [ 80.7042999, 7.61236 ] } },
{ "type": "Feature", "properties": { "RID": 26, "Code": "xsa", "Name": "Rest of South Asia", "Lon": 67.368103, "Lat": 33.4808006 }, "geometry": { "type": "Point", "coordinates": [ 67.368103, 33.4808006 ] } },
{ "type": "Feature", "properties": { "RID": 27, "Code": "can", "Name": "Canada", "Lon": -98.2609024, "Lat": 61.3931007 }, "geometry": { "type": "Point", "coordinates": [ -98.2609024, 61.3931007 ] } },
{ "type": "Feature", "properties": { "RID": 28, "Code": "usa", "Name": "United States of America", "Lon": -112.4940033, "Lat": 45.6954994 }, "geometry": { "type": "Point", "coordinates": [ -112.4940033, 45.6954994 ] } },
{ "type": "Feature", "properties": { "RID": 29, "Code": "mex", "Name": "Mexico", "Lon": -102.5350037, "Lat": 23.9508991 }, "geometry": { "type": "Point", "coordinates": [ -102.5350037, 23.9508991 ] } },
{ "type": "Feature", "properties": { "RID": 30, "Code": "xna", "Name": "Rest of North America", "Lon": -41.3917999, "Lat": 74.7173996 }, "geometry": { "type": "Point", "coordinates": [ -41.3917999, 74.7173996 ] } },
{ "type": "Feature", "properties": { "RID": 31, "Code": "arg", "Name": "Argentina", "Lon": -65.1675034, "Lat": -35.3767014 }, "geometry": { "type": "Point", "coordinates": [ -65.1675034, -35.3767014 ] } },
{ "type": "Feature", "properties": { "RID": 32, "Code": "bol", "Name": "Bolivia", "Lon": -64.6705017, "Lat": -16.7150993 }, "geometry": { "type": "Point", "coordinates": [ -64.6705017, -16.7150993 ] } },
{ "type": "Feature", "properties": { "RID": 33, "Code": "bra", "Name": "Brazil", "Lon": -53.0887985, "Lat": -10.7722998 }, "geometry": { "type": "Point", "coordinates": [ -53.0887985, -10.7722998 ] } },
{ "type": "Feature", "properties": { "RID": 34, "Code": "chl", "Name": "Chile", "Lon": -71.3800964, "Lat": -37.8680992 }, "geometry": { "type": "Point", "coordinates": [ -71.3800964, -37.8680992 ] } },
{ "type": "Feature", "properties": { "RID": 35, "Code": "col", "Name": "Colombia", "Lon": -73.075798, "Lat": 3.9003699 }, "geometry": { "type": "Point", "coordinates": [ -73.075798, 3.9003699 ] } },
{ "type": "Feature", "properties": { "RID": 36, "Code": "ecu", "Name": "Ecuador", "Lon": -78.7809982, "Lat": -1.42528 }, "geometry": { "type": "Point", "coordinates": [ -78.7809982, -1.42528 ] } },
{ "type": "Feature", "properties": { "RID": 37, "Code": "pry", "Name": "Paraguay", "Lon": -58.3909988, "Lat": -23.2360992 }, "geometry": { "type": "Point", "coordinates": [ -58.3909988, -23.2360992 ] } },
{ "type": "Feature", "properties": { "RID": 38, "Code": "per", "Name": "Peru", "Lon": -74.3753967, "Lat": -9.1637697 }, "geometry": { "type": "Point", "coordinates": [ -74.3753967, -9.1637697 ] } },
{ "type": "Feature", "properties": { "RID": 39, "Code": "ury", "Name": "Uruguay", "Lon": -56.0121994, "Lat": -32.7995987 }, "geometry": { "type": "Point", "coordinates": [ -56.0121994, -32.7995987 ] } },
{ "type": "Feature", "properties": { "RID": 40, "Code": "ven", "Name": "Venezuela", "Lon": -66.1661987, "Lat": 7.1249399 }, "geometry": { "type": "Point", "coordinates": [ -66.1661987, 7.1249399 ] } },
{ "type": "Feature", "properties": { "RID": 41, "Code": "xsm", "Name": "Rest of South America", "Lon": -56.6744995, "Lat": 1.2958 }, "geometry": { "type": "Point", "coordinates": [ -56.6744995, 1.2958 ] } },
{ "type": "Feature", "properties": { "RID": 42, "Code": "cri", "Name": "Costa Rica", "Lon": -84.189003, "Lat": 9.97052 }, "geometry": { "type": "Point", "coordinates": [ -84.189003, 9.97052 ] } },
{ "type": "Feature", "properties": { "RID": 43, "Code": "gtm", "Name": "Guatemala", "Lon": -90.3569031, "Lat": 15.7023001 }, "geometry": { "type": "Point", "coordinates": [ -90.3569031, 15.7023001 ] } },
{ "type": "Feature", "properties": { "RID": 44, "Code": "hnd", "Name": "Honduras", "Lon": -86.6196976, "Lat": 14.8192997 }, "geometry": { "type": "Point", "coordinates": [ -86.6196976, 14.8192997 ] } },
{ "type": "Feature", "properties": { "RID": 45, "Code": "nic", "Name": "Nicaragua", "Lon": -85.0337982, "Lat": 12.8401003 }, "geometry": { "type": "Point", "coordinates": [ -85.0337982, 12.8401003 ] } },
{ "type": "Feature", "properties": { "RID": 46, "Code": "pan", "Name": "Panama", "Lon": -80.1091003, "Lat": 8.5054398 }, "geometry": { "type": "Point", "coordinates": [ -80.1091003, 8.5054398 ] } },
{ "type": "Feature", "properties": { "RID": 47, "Code": "slv", "Name": "El Salvador", "Lon": -88.8656006, "Lat": 13.7361002 }, "geometry": { "type": "Point", "coordinates": [ -88.8656006, 13.7361002 ] } },
{ "type": "Feature", "properties": { "RID": 48, "Code": "xca", "Name": "Rest of Central America", "Lon": -88.6828003, "Lat": 17.2185001 }, "geometry": { "type": "Point", "coordinates": [ -88.6828003, 17.2185001 ] } },
{ "type": "Feature", "properties": { "RID": 49, "Code": "dom", "Name": "Dominican Republic", "Lon": -70.4853973, "Lat": 18.8931007 }, "geometry": { "type": "Point", "coordinates": [ -70.4853973, 18.8931007 ] } },
{ "type": "Feature", "properties": { "RID": 50, "Code": "jam", "Name": "Jamaica", "Lon": -77.3197021, "Lat": 18.1513004 }, "geometry": { "type": "Point", "coordinates": [ -77.3197021, 18.1513004 ] } },
{ "type": "Feature", "properties": { "RID": 51, "Code": "pri", "Name": "Puerto Rico", "Lon": -66.4661026, "Lat": 18.2208996 }, "geometry": { "type": "Point", "coordinates": [ -66.4661026, 18.2208996 ] } },
{ "type": "Feature", "properties": { "RID": 52, "Code": "tto", "Name": "Trinidad and Tobago", "Lon": -61.2526016, "Lat": 10.4684 }, "geometry": { "type": "Point", "coordinates": [ -61.2526016, 10.4684 ] } },
{ "type": "Feature", "properties": { "RID": 53, "Code": "xcb", "Name": "Caribbean", "Lon": -77.2416, "Lat": 21.1886997 }, "geometry": { "type": "Point", "coordinates": [ -77.2416, 21.1886997 ] } },
{ "type": "Feature", "properties": { "RID": 54, "Code": "aut", "Name": "Austria", "Lon": 14.1400003, "Lat": 47.5929985 }, "geometry": { "type": "Point", "coordinates": [ 14.1400003, 47.5929985 ] } },
{ "type": "Feature", "properties": { "RID": 55, "Code": "bel", "Name": "Belgium", "Lon": 4.66435, "Lat": 50.6430016 }, "geometry": { "type": "Point", "coordinates": [ 4.66435, 50.6430016 ] } },
{ "type": "Feature", "properties": { "RID": 56, "Code": "bgr", "Name": "Bulgaria", "Lon": 25.2313995, "Lat": 42.7613983 }, "geometry": { "type": "Point", "coordinates": [ 25.2313995, 42.7613983 ] } },
{ "type": "Feature", "properties": { "RID": 57, "Code": "hrv", "Name": "Croatia", "Lon": 16.4069004, "Lat": 45.0442009 }, "geometry": { "type": "Point", "coordinates": [ 16.4069004, 45.0442009 ] } },
{ "type": "Feature", "properties": { "RID": 58, "Code": "cyp", "Name": "Cyprus", "Lon": 33.2186012, "Lat": 35.0429993 }, "geometry": { "type": "Point", "coordinates": [ 33.2186012, 35.0429993 ] } },
{ "type": "Feature", "properties": { "RID": 59, "Code": "cze", "Name": "Czech Republic", "Lon": 15.3382998, "Lat": 49.743 }, "geometry": { "type": "Point", "coordinates": [ 15.3382998, 49.743 ] } },
{ "type": "Feature", "properties": { "RID": 60, "Code": "dnk", "Name": "Denmark", "Lon": 10.0508003, "Lat": 55.9622993 }, "geometry": { "type": "Point", "coordinates": [ 10.0508003, 55.9622993 ] } },
{ "type": "Feature", "properties": { "RID": 61, "Code": "est", "Name": "Estonia", "Lon": 25.5258007, "Lat": 58.6739998 }, "geometry": { "type": "Point", "coordinates": [ 25.5258007, 58.6739998 ] } },
{ "type": "Feature", "properties": { "RID": 62, "Code": "fin", "Name": "Finland", "Lon": 26.2591, "Lat": 64.4944992 }, "geometry": { "type": "Point", "coordinates": [ 26.2591, 64.4944992 ] } },
{ "type": "Feature", "properties": { "RID": 63, "Code": "fra", "Name": "France", "Lon": 2.50053, "Lat": 46.2094994 }, "geometry": { "type": "Point", "coordinates": [ 2.50053, 46.2094994 ] } },
{ "type": "Feature", "properties": { "RID": 64, "Code": "deu", "Name": "Germany", "Lon": 10.3922997, "Lat": 51.110199 }, "geometry": { "type": "Point", "coordinates": [ 10.3922997, 51.110199 ] } },
{ "type": "Feature", "properties": { "RID": 65, "Code": "grc", "Name": "Greece", "Lon": 22.9880009, "Lat": 39.0444984 }, "geometry": { "type": "Point", "coordinates": [ 22.9880009, 39.0444984 ] } },
{ "type": "Feature", "properties": { "RID": 66, "Code": "hun", "Name": "Hungary", "Lon": 19.4134998, "Lat": 47.1665001 }, "geometry": { "type": "Point", "coordinates": [ 19.4134998, 47.1665001 ] } },
{ "type": "Feature", "properties": { "RID": 67, "Code": "irl", "Name": "Ireland", "Lon": -8.1515799, "Lat": 53.1771011 }, "geometry": { "type": "Point", "coordinates": [ -8.1515799, 53.1771011 ] } },
{ "type": "Feature", "properties": { "RID": 68, "Code": "ita", "Name": "Italy", "Lon": 12.0717001, "Lat": 42.7911987 }, "geometry": { "type": "Point", "coordinates": [ 12.0717001, 42.7911987 ] } },
{ "type": "Feature", "properties": { "RID": 69, "Code": "lva", "Name": "Latvia", "Lon": 24.9291992, "Lat": 56.8577003 }, "geometry": { "type": "Point", "coordinates": [ 24.9291992, 56.8577003 ] } },
{ "type": "Feature", "properties": { "RID": 70, "Code": "ltu", "Name": "Lithuania", "Lon": 23.8967991, "Lat": 55.3358002 }, "geometry": { "type": "Point", "coordinates": [ 23.8967991, 55.3358002 ] } },
{ "type": "Feature", "properties": { "RID": 71, "Code": "lux", "Name": "Luxembourg", "Lon": 6.0875401, "Lat": 49.7709999 }, "geometry": { "type": "Point", "coordinates": [ 6.0875401, 49.7709999 ] } },
{ "type": "Feature", "properties": { "RID": 72, "Code": "mlt", "Name": "Malta", "Lon": 14.4046001, "Lat": 35.9203987 }, "geometry": { "type": "Point", "coordinates": [ 14.4046001, 35.9203987 ] } },
{ "type": "Feature", "properties": { "RID": 73, "Code": "nld", "Name": "Netherlands", "Lon": 5.6009998, "Lat": 52.2536011 }, "geometry": { "type": "Point", "coordinates": [ 5.6009998, 52.2536011 ] } },
{ "type": "Feature", "properties": { "RID": 74, "Code": "pol", "Name": "Poland", "Lon": 19.4008999, "Lat": 52.1246986 }, "geometry": { "type": "Point", "coordinates": [ 19.4008999, 52.1246986 ] } },
{ "type": "Feature", "properties": { "RID": 75, "Code": "prt", "Name": "Portugal", "Lon": -8.4673595, "Lat": 39.6026993 }, "geometry": { "type": "Point", "coordinates": [ -8.4673595, 39.6026993 ] } },
{ "type": "Feature", "properties": { "RID": 76, "Code": "rou", "Name": "Romania", "Lon": 24.9692001, "Lat": 45.8436012 }, "geometry": { "type": "Point", "coordinates": [ 24.9692001, 45.8436012 ] } },
{ "type": "Feature", "properties": { "RID": 77, "Code": "svk", "Name": "Slovakia", "Lon": 19.4913998, "Lat": 48.7074013 }, "geometry": { "type": "Point", "coordinates": [ 19.4913998, 48.7074013 ] } },
{ "type": "Feature", "properties": { "RID": 78, "Code": "svn", "Name": "Slovenia", "Lon": 14.8270998, "Lat": 46.1236 }, "geometry": { "type": "Point", "coordinates": [ 14.8270998, 46.1236 ] } },
{ "type": "Feature", "properties": { "RID": 79, "Code": "esp", "Name": "Spain", "Lon": -3.6493101, "Lat": 40.2275009 }, "geometry": { "type": "Point", "coordinates": [ -3.6493101, 40.2275009 ] } },
{ "type": "Feature", "properties": { "RID": 80, "Code": "swe", "Name": "Sweden", "Lon": 16.7411995, "Lat": 62.7877007 }, "geometry": { "type": "Point", "coordinates": [ 16.7411995, 62.7877007 ] } },
{ "type": "Feature", "properties": { "RID": 81, "Code": "gbr", "Name": "United Kingdom", "Lon": -2.9005001, "Lat": 54.1601982 }, "geometry": { "type": "Point", "coordinates": [ -2.9005001, 54.1601982 ] } },
{ "type": "Feature", "properties": { "RID": 82, "Code": "che", "Name": "Switzerland", "Lon": 8.23458, "Lat": 46.8026009 }, "geometry": { "type": "Point", "coordinates": [ 8.23458, 46.8026009 ] } },
{ "type": "Feature", "properties": { "RID": 83, "Code": "nor", "Name": "Norway", "Lon": 15.3767996, "Lat": 68.8022995 }, "geometry": { "type": "Point", "coordinates": [ 15.3767996, 68.8022995 ] } },
{ "type": "Feature", "properties": { "RID": 84, "Code": "xef", "Name": "Rest of EFTA", "Lon": -18.5757999, "Lat": 64.9786987 }, "geometry": { "type": "Point", "coordinates": [ -18.5757999, 64.9786987 ] } },
{ "type": "Feature", "properties": { "RID": 85, "Code": "alb", "Name": "Albania", "Lon": 20.0683994, "Lat": 41.1425018 }, "geometry": { "type": "Point", "coordinates": [ 20.0683994, 41.1425018 ] } },
{ "type": "Feature", "properties": { "RID": 86, "Code": "blr", "Name": "Belarus", "Lon": 28.0470009, "Lat": 53.5401993 }, "geometry": { "type": "Point", "coordinates": [ 28.0470009, 53.5401993 ] } },
{ "type": "Feature", "properties": { "RID": 87, "Code": "rus", "Name": "Russian Federation", "Lon": 96.6893997, "Lat": 61.9882011 }, "geometry": { "type": "Point", "coordinates": [ 96.6893997, 61.9882011 ] } },
{ "type": "Feature", "properties": { "RID": 88, "Code": "ukr", "Name": "Ukraine", "Lon": 31.3878002, "Lat": 49.0161018 }, "geometry": { "type": "Point", "coordinates": [ 31.3878002, 49.0161018 ] } },
{ "type": "Feature", "properties": { "RID": 89, "Code": "xee", "Name": "Rest of Eastern Europe", "Lon": 28.4743004, "Lat": 47.1932983 }, "geometry": { "type": "Point", "coordinates": [ 28.4743004, 47.1932983 ] } },
{ "type": "Feature", "properties": { "RID": 90, "Code": "xer", "Name": "Rest of Europe", "Lon": 19.3887005, "Lat": 43.9379005 }, "geometry": { "type": "Point", "coordinates": [ 19.3887005, 43.9379005 ] } },
{ "type": "Feature", "properties": { "RID": 91, "Code": "kaz", "Name": "Kazakhstan", "Lon": 67.3013, "Lat": 48.1599998 }, "geometry": { "type": "Point", "coordinates": [ 67.3013, 48.1599998 ] } },
{ "type": "Feature", "properties": { "RID": 92, "Code": "kgz", "Name": "Kyrgyzstan", "Lon": 74.5554962, "Lat": 41.464901 }, "geometry": { "type": "Point", "coordinates": [ 74.5554962, 41.464901 ] } },
{ "type": "Feature", "properties": { "RID": 93, "Code": "tjk", "Name": "Tajikistan", "Lon": 71.0421982, "Lat": 38.5278015 }, "geometry": { "type": "Point", "coordinates": [ 71.0421982, 38.5278015 ] } },
{ "type": "Feature", "properties": { "RID": 94, "Code": "xsu", "Name": "Rest of Former Soviet Union", "Lon": 61.2613983, "Lat": 40.4258003 }, "geometry": { "type": "Point", "coordinates": [ 61.2613983, 40.4258003 ] } },
{ "type": "Feature", "properties": { "RID": 95, "Code": "arm", "Name": "Armenia", "Lon": 44.9478989, "Lat": 40.2863998 }, "geometry": { "type": "Point", "coordinates": [ 44.9478989, 40.2863998 ] } },
{ "type": "Feature", "properties": { "RID": 96, "Code": "aze", "Name": "Azerbaijan", "Lon": 47.532299, "Lat": 40.2921982 }, "geometry": { "type": "Point", "coordinates": [ 47.532299, 40.2921982 ] } },
{ "type": "Feature", "properties": { "RID": 97, "Code": "geo", "Name": "Georgia", "Lon": 43.517601, "Lat": 42.1763 }, "geometry": { "type": "Point", "coordinates": [ 43.517601, 42.1763 ] } },
{ "type": "Feature", "properties": { "RID": 98, "Code": "bhr", "Name": "Bahrain", "Lon": 50.5625, "Lat": 26.0195007 }, "geometry": { "type": "Point", "coordinates": [ 50.5625, 26.0195007 ] } },
{ "type": "Feature", "properties": { "RID": 99, "Code": "irn", "Name": "Iran Islamic Republic of", "Lon": 54.3013992, "Lat": 32.5648003 }, "geometry": { "type": "Point", "coordinates": [ 54.3013992, 32.5648003 ] } },
{ "type": "Feature", "properties": { "RID": 100, "Code": "isr", "Name": "Israel", "Lon": 34.9659996, "Lat": 31.3581009 }, "geometry": { "type": "Point", "coordinates": [ 34.9659996, 31.3581009 ] } },
{ "type": "Feature", "properties": { "RID": 101, "Code": "jor", "Name": "Jordan", "Lon": 36.7868996, "Lat": 31.2534008 }, "geometry": { "type": "Point", "coordinates": [ 36.7868996, 31.2534008 ] } },
{ "type": "Feature", "properties": { "RID": 102, "Code": "kwt", "Name": "Kuwait", "Lon": 47.5936012, "Lat": 29.3425007 }, "geometry": { "type": "Point", "coordinates": [ 47.5936012, 29.3425007 ] } },
{ "type": "Feature", "properties": { "RID": 103, "Code": "omn", "Name": "Oman", "Lon": 56.1100998, "Lat": 20.6023998 }, "geometry": { "type": "Point", "coordinates": [ 56.1100998, 20.6023998 ] } },
{ "type": "Feature", "properties": { "RID": 104, "Code": "qat", "Name": "Qatar", "Lon": 51.1912003, "Lat": 25.3157997 }, "geometry": { "type": "Point", "coordinates": [ 51.1912003, 25.3157997 ] } },
{ "type": "Feature", "properties": { "RID": 105, "Code": "sau", "Name": "Saudi Arabia", "Lon": 44.5850983, "Lat": 24.0233994 }, "geometry": { "type": "Point", "coordinates": [ 44.5850983, 24.0233994 ] } },
{ "type": "Feature", "properties": { "RID": 106, "Code": "tur", "Name": "Turkey", "Lon": 35.1791992, "Lat": 39.0606003 }, "geometry": { "type": "Point", "coordinates": [ 35.1791992, 39.0606003 ] } },
{ "type": "Feature", "properties": { "RID": 107, "Code": "are", "Name": "United Arab Emirates", "Lon": 54.3321991, "Lat": 23.9127007 }, "geometry": { "type": "Point", "coordinates": [ 54.3321991, 23.9127007 ] } },
{ "type": "Feature", "properties": { "RID": 108, "Code": "xws", "Name": "Rest of Western Asia", "Lon": 44.0480995, "Lat": 27.1338997 }, "geometry": { "type": "Point", "coordinates": [ 44.0480995, 27.1338997 ] } },
{ "type": "Feature", "properties": { "RID": 109, "Code": "egy", "Name": "Egypt", "Lon": 29.8722992, "Lat": 26.4941006 }, "geometry": { "type": "Point", "coordinates": [ 29.8722992, 26.4941006 ] } },
{ "type": "Feature", "properties": { "RID": 110, "Code": "mar", "Name": "Morocco", "Lon": -6.3178, "Lat": 31.8836002 }, "geometry": { "type": "Point", "coordinates": [ -6.3178, 31.8836002 ] } },
{ "type": "Feature", "properties": { "RID": 111, "Code": "tun", "Name": "Tunisia", "Lon": 9.5615597, "Lat": 34.1111984 }, "geometry": { "type": "Point", "coordinates": [ 9.5615597, 34.1111984 ] } },
{ "type": "Feature", "properties": { "RID": 112, "Code": "xnf", "Name": "Rest of North Africa", "Lon": 7.5413799, "Lat": 27.5163994 }, "geometry": { "type": "Point", "coordinates": [ 7.5413799, 27.5163994 ] } },
{ "type": "Feature", "properties": { "RID": 113, "Code": "ben", "Name": "Benin", "Lon": 2.34326, "Lat": 9.6476498 }, "geometry": { "type": "Point", "coordinates": [ 2.34326, 9.6476498 ] } },
{ "type": "Feature", "properties": { "RID": 114, "Code": "bfa", "Name": "Burkina Faso", "Lon": -1.73984, "Lat": 12.2778997 }, "geometry": { "type": "Point", "coordinates": [ -1.73984, 12.2778997 ] } },
{ "type": "Feature", "properties": { "RID": 115, "Code": "cmr", "Name": "Cameroon", "Lon": 12.7433004, "Lat": 5.6858001 }, "geometry": { "type": "Point", "coordinates": [ 12.7433004, 5.6858001 ] } },
{ "type": "Feature", "properties": { "RID": 116, "Code": "civ", "Name": "Cote dIvoire", "Lon": -5.5555, "Lat": 7.6317301 }, "geometry": { "type": "Point", "coordinates": [ -5.5555, 7.6317301 ] } },
{ "type": "Feature", "properties": { "RID": 117, "Code": "gha", "Name": "Ghana", "Lon": -1.20705, "Lat": 7.95964 }, "geometry": { "type": "Point", "coordinates": [ -1.20705, 7.95964 ] } },
{ "type": "Feature", "properties": { "RID": 118, "Code": "gin", "Name": "Guinea", "Lon": -10.9418001, "Lat": 10.4385004 }, "geometry": { "type": "Point", "coordinates": [ -10.9418001, 10.4385004 ] } },
{ "type": "Feature", "properties": { "RID": 119, "Code": "nga", "Name": "Nigeria", "Lon": 8.10532, "Lat": 9.5936403 }, "geometry": { "type": "Point", "coordinates": [ 8.10532, 9.5936403 ] } },
{ "type": "Feature", "properties": { "RID": 120, "Code": "sen", "Name": "Senegal", "Lon": -14.4681997, "Lat": 14.3669996 }, "geometry": { "type": "Point", "coordinates": [ -14.4681997, 14.3669996 ] } },
{ "type": "Feature", "properties": { "RID": 121, "Code": "tgo", "Name": "Togo", "Lon": 0.975846, "Lat": 8.5349102 }, "geometry": { "type": "Point", "coordinates": [ 0.975846, 8.5349102 ] } },
{ "type": "Feature", "properties": { "RID": 122, "Code": "xwf", "Name": "Rest of Western Africa", "Lon": -1.79619, "Lat": 17.7019997 }, "geometry": { "type": "Point", "coordinates": [ -1.79619, 17.7019997 ] } },
{ "type": "Feature", "properties": { "RID": 123, "Code": "xcf", "Name": "Central Africa", "Lon": 17.8568993, "Lat": 9.3076696 }, "geometry": { "type": "Point", "coordinates": [ 17.8568993, 9.3076696 ] } },
{ "type": "Feature", "properties": { "RID": 124, "Code": "xac", "Name": "South Central Africa", "Lon": 21.4937992, "Lat": -6.20684 }, "geometry": { "type": "Point", "coordinates": [ 21.4937992, -6.20684 ] } },
{ "type": "Feature", "properties": { "RID": 125, "Code": "eth", "Name": "Ethiopia", "Lon": 39.6160011, "Lat": 8.6261396 }, "geometry": { "type": "Point", "coordinates": [ 39.6160011, 8.6261396 ] } },
{ "type": "Feature", "properties": { "RID": 126, "Code": "ken", "Name": "Kenya", "Lon": 37.8578987, "Lat": 0.529779 }, "geometry": { "type": "Point", "coordinates": [ 37.8578987, 0.529779 ] } },
{ "type": "Feature", "properties": { "RID": 127, "Code": "mdg", "Name": "Madagascar", "Lon": 46.7060013, "Lat": -19.3735008 }, "geometry": { "type": "Point", "coordinates": [ 46.7060013, -19.3735008 ] } },
{ "type": "Feature", "properties": { "RID": 128, "Code": "mwi", "Name": "Malawi", "Lon": 34.3069992, "Lat": -13.2151003 }, "geometry": { "type": "Point", "coordinates": [ 34.3069992, -13.2151003 ] } },
{ "type": "Feature", "properties": { "RID": 129, "Code": "mus", "Name": "Mauritius", "Lon": 57.8684998, "Lat": -20.1700993 }, "geometry": { "type": "Point", "coordinates": [ 57.8684998, -20.1700993 ] } },
{ "type": "Feature", "properties": { "RID": 130, "Code": "moz", "Name": "Mozambique", "Lon": 35.5522995, "Lat": -17.2602005 }, "geometry": { "type": "Point", "coordinates": [ 35.5522995, -17.2602005 ] } },
{ "type": "Feature", "properties": { "RID": 131, "Code": "rwa", "Name": "Rwanda", "Lon": 29.9172001, "Lat": -1.99797 }, "geometry": { "type": "Point", "coordinates": [ 29.9172001, -1.99797 ] } },
{ "type": "Feature", "properties": { "RID": 132, "Code": "tza", "Name": "Tanzania United Republic of", "Lon": 34.8233986, "Lat": -6.2701998 }, "geometry": { "type": "Point", "coordinates": [ 34.8233986, -6.2701998 ] } },
{ "type": "Feature", "properties": { "RID": 133, "Code": "uga", "Name": "Uganda", "Lon": 32.3862, "Lat": 1.28009 }, "geometry": { "type": "Point", "coordinates": [ 32.3862, 1.28009 ] } },
{ "type": "Feature", "properties": { "RID": 134, "Code": "zmb", "Name": "Zambia", "Lon": 27.7978992, "Lat": -13.4531002 }, "geometry": { "type": "Point", "coordinates": [ 27.7978992, -13.4531002 ] } },
{ "type": "Feature", "properties": { "RID": 135, "Code": "zwe", "Name": "Zimbabwe", "Lon": 29.8717995, "Lat": -19.0 }, "geometry": { "type": "Point", "coordinates": [ 29.8717995, -19.0 ] } },
{ "type": "Feature", "properties": { "RID": 136, "Code": "xec", "Name": "Rest of Eastern Africa", "Lon": 33.4609985, "Lat": 12.2463999 }, "geometry": { "type": "Point", "coordinates": [ 33.4609985, 12.2463999 ] } },
{ "type": "Feature", "properties": { "RID": 137, "Code": "bwa", "Name": "Botswana", "Lon": 23.8150997, "Lat": -22.1819992 }, "geometry": { "type": "Point", "coordinates": [ 23.8150997, -22.1819992 ] } },
{ "type": "Feature", "properties": { "RID": 138, "Code": "nam", "Name": "Namibia", "Lon": 17.2185001, "Lat": -22.1333008 }, "geometry": { "type": "Point", "coordinates": [ 17.2185001, -22.1333008 ] } },
{ "type": "Feature", "properties": { "RID": 139, "Code": "zaf", "Name": "South Africa", "Lon": 25.0932007, "Lat": -28.9995003 }, "geometry": { "type": "Point", "coordinates": [ 25.0932007, -28.9995003 ] } },
{ "type": "Feature", "properties": { "RID": 140, "Code": "xsc", "Name": "Rest of South African Customs Union", "Lon": 29.3913994, "Lat": -28.5154991 }, "geometry": { "type": "Point", "coordinates": [ 29.3913994, -28.5154991 ] } },
{ "type": "Feature", "properties": { "RID": 141, "Code": "xtw", "Name": "Rest of the World", "Lon": 21.3115997, "Lat": -80.4406967 }, "geometry": { "type": "Point", "coordinates": [ 21.3115997, -80.4406967 ] } }
]
}
